UNKNOWN                 
1 87553U          25340.54441142  .00006477  00000+0  19420-2 0  9998
2 87553  65.6711  10.8694 0701050 230.2419 123.4847 13.53429466590419
UNKNOWN                 
1 87557U          25341.55684146  .00006931  00000+0  15256-1 0  9994
2 87557 101.7248 196.3279 0070981  15.0409 345.2795 13.27694723564349
UNKNOWN                 
1 87561U          25328.11262889  .00000022  00000+0  51925-3 0  9992
2 87561 102.0131  26.1651 0173943 327.1787  60.0517 12.32152378540147
UNKNOWN                 
1 87565U          25336.20453468  .00001475  00000+0  81637-3 0  9996
2 87565  99.9476 326.7882 0171672 199.3533 160.1059 14.05956757614956
UNKNOWN                 
1 87569U          25340.27323095 -.00000033  00000+0  78622-4 0  9995
2 87569 101.9878 157.3779 0055535 266.0503 279.1171 12.68540515557647
UNKNOWN                 
1 87587U          25341.09456399  .00000521  00000+0  17328-3 0  9996
2 87587  74.0238 113.3337 0019829 153.7328 206.4837 14.40054684632995
UNKNOWN                 
1 87590U          25337.06817903  .00000764  00000+0  45360-3 0  9990
2 87590  98.7885  14.4031 0025987 311.4342  78.7710 14.10305378152884
UNKNOWN                 
1 87616U          25336.00081455  .00000421  00000+0  15843-2 0  9999
2 87616  66.0341 169.6820 0633830 143.6568   8.8853 12.46878095534899
UNKNOWN                 
1 87624U          25341.27153984  .00009831  00000+0  15355-2 0  9992
2 87624  98.6805 278.3585 0096835 265.7649  93.2485 14.69926408579475
UNKNOWN                 
1 87650U          25332.22926079  .00013074  00000+0  26480-2 0  9994
2 87650 100.2695 144.0175 0033059 322.6319  37.2575 14.61100605 77646
UNKNOWN                 
1 87672U          25340.82325264  .00003885  00000+0  15567-2 0  9995
2 87672  70.8576  19.4497 0063857 281.8043  77.5928 14.27800851623616
UNKNOWN                 
1 87681U          25340.36806454  .00002334  00000+0  24654-2 0  9994
2 87681  66.7355 113.7707 0156358 166.8780 193.6430 13.71091164600964
UNKNOWN                 
1 87690U          25341.49491804  .00006619  00000+0  10122-2 0  9993
2 87690  65.7947   7.6459 0578312  50.2238 314.8311 14.00315092606645
UNKNOWN                 
1 87706U          25340.47289646  .00008498  00000+0  14960-2 0  9998
2 87706  98.6721 163.7211 0104654 287.4266 101.3380 14.64298872577601
UNKNOWN                 
1 87725U          25341.52263112  .00073694  00000+0  64844-2 0  9992
2 87725  82.8669 260.6235 0019986  65.8381 294.4929 14.95997473633142
UNKNOWN                 
1 87730U          25341.42133164  .00000168  00000+0  16127-3 0  9998
2 87730  82.9456 238.0347 0030621  20.9635 339.2768 13.74504278584607
UNKNOWN                 
1 87737U          25339.41173191  .00000088  00000+0  13560-3 0  9994
2 87737  99.3750 211.3691 0132690 208.5737 150.8093 13.72339215602856
UNKNOWN                 
1 87764U          25340.97248890  .00012512  00000+0  21188-2 0  9995
2 87764  65.6705 178.3382 0360371  79.8685  42.3126 14.34705557618293
UNKNOWN                 
1 87771U          25339.33490660  .00000175  00000+0  53486-3 0  9994
2 87771 100.7432 175.3392 0119852  19.1283 341.4276 13.19514073534114
UNKNOWN                 
1 87782U          25341.38078663  .00003892  00000+0  12946-1 0  9992
2 87782 102.3379 212.2718 0053755 258.4828 101.0229 13.00380274567296
UNKNOWN                 
1 87843U          25333.08501501  .00002189  00000+0  50762-2 0  9997
2 87843  99.6612  88.3845 0232934  37.8196 323.9035 13.16477533562365
UNKNOWN                 
1 87845U          25340.16646578  .00001903  00000+0  36198-2 0  9990
2 87845  98.8540 298.9469 0575548 268.9716  84.5433 12.88904479564361
UNKNOWN                 
1 87878U          25329.13464671  .00004508  00000+0  14211-2 0  9998
2 87878  99.1571  87.3941 0034791 317.6102  42.2398 14.40517621608764
UNKNOWN                 
1 87884U          25336.25687777  .00000126  00000+0  91357-4 0  9990
2 87884  98.7351  80.4697 0154806  97.8095 264.0679 14.05976059616896
UNKNOWN                 
1 87991U          25341.13780966  .00006229  00000+0  12690-1 0  9996
2 87991  28.6269 283.6349 0884384   0.6057 359.5392 12.35037828522304
UNKNOWN                 
1 87998U          25337.76078370  .00001302  00000+0  73650-3 0  9998
2 87998  98.5972 343.8319 0025639 270.5850  89.2384 14.11656049547632
UNKNOWN                 
1 89003U          25319.55414108  .00000717  00000+0  25466-3 0  9998
2 89003  74.0493  64.4739 0014016 133.4339 226.7983 14.36170170627642
UNKNOWN                 
1 89005U          25341.48319313  .00003596  00000+0  82027-3 0  9993
2 89005  97.8384 171.0214 0192704  48.0208 313.7221 14.45529359533337
UNKNOWN                 
1 89029U          25339.47040921  .00012076  00000+0  11235-2 0  9996
2 89029  98.0496 238.5339 0022794 353.3573   6.7341 14.94276941649997
UNKNOWN                 
1 89101U          25339.04054966  .00000364  00000+0  12096-2 0  9997
2 89101 100.4641 275.9869 0147108 124.8732 236.6304 13.04009249553842
UNKNOWN                 
1 89132U          25341.22454507  .00005955  00000+0  79722-2 0  9999
2 89132  63.4333  56.8466 2932436 319.5960  21.9782  8.86431230324625
UNKNOWN                 
1 89146U          25340.76408009  .00007974  00000+0  14671-2 0  9993
2 89146  98.2478 269.4892 0095059  74.0751 287.0900 14.62956648628003
UNKNOWN                 
1 89161U          25341.02939426  .00116330  00000+0  29365-2 0  9995
2 89161  97.6561 356.4767 0040495  83.5037 277.0815 15.38540580547709
UNKNOWN                 
1 89172U          25332.98760542  .00016958  00000+0  27689-2 0  9995
2 89172  82.0647 234.8471 0294211 324.0687  34.1028 14.45939828599907
UNKNOWN                 
1 89177U          25332.60405141  .00000117  00000+0  10844-3 0  9996
2 89177  82.9201 279.5997 0032265 179.4907 180.6287 13.73722918 60886
UNKNOWN                 
1 89183U          25341.03980506  .00000719  00000+0  67004-3 0  9991
2 89183  99.2180 252.2472 0129852 171.5576 188.7805 13.81571530606185
UNKNOWN                 
1 89184U          25341.07424822  .00037727  00000+0  48904-2 0  9996
2 89184  98.3886 205.5388 0008738 136.0677 224.1230 14.80643059491335
UNKNOWN                 
1 89213U          25341.45273622  .00000845  00000+0  56483-3 0  9994
2 89213  98.7797 214.8748 0227972 140.8482 220.9422 13.91579711451939
UNKNOWN                 
1 89251U          25341.08458818  .00016370  00000+0  96964-2 0  9994
2 89251  62.4763  10.8249 2832966 100.1381 292.7005  9.24573201372661
UNKNOWN                 
1 89261U          25340.23696330  .00001812  00000+0  55179-3 0  9993
2 89261  98.1534 334.9305 0012882 173.5471 186.5889 14.43095342532879
UNKNOWN                 
1 89304U          25338.65021096  .00026411  00000+0  33948-1 0  9995
2 89304  84.3364 106.1463 2844249 356.2066   8.8658  9.03063279437677
UNKNOWN                 
1 89349U          25341.51303724  .00000418  00000+0  14382-2 0  9995
2 89349  90.2449   7.2361 0028272 279.5535  80.2390 12.96241737478079
UNKNOWN                 
1 89379U          25341.49949316  .00006651  00000+0  85442-2 0  9998
2 89379 100.4798 356.3776 0043131 142.8540 217.5596 13.62653514580060
UNKNOWN                 
1 89395U          25330.43006770  .00000100  00000+0  16005-2 0  9998
2 89395 102.3682 299.5856 0221848 152.7477   0.1865 12.01514817522784
UNKNOWN                 
1 89403U          25340.31397840  .00001108  00000+0  37180-2 0  9993
2 89403  90.2475   5.6620 0028419 232.6038 140.4118 12.98747021476995
UNKNOWN                 
1 89484U          25340.76562520  .00048329  00000+0  36533-1 0  9996
2 89484  84.0764 156.4351 2858195  34.6434 341.1145  9.14100499354896
UNKNOWN                 
1 89493U          25334.64301458  .00002750  00000+0  13677-2 0  9990
2 89493  99.0280  43.3463 0081658  75.3205 285.7002 14.16161642462239
UNKNOWN                 
1 89494U          25338.65348462  .00005588  00000+0  27566-2 0  9996
2 89494  99.0287  47.2983 0081760  63.9799 296.9765 14.16129144462659
